DIAMOND RED             
1 42783U 17036U   22194.32478046  .00009624  00000+0  35627-3 0  9999
2 42783  97.1974 234.2343 0008965 230.3494 129.6955 15.27829820280895
PEGASUS                 
1 42784U 17036V   22194.35611864  .00011751  00000+0  41483-3 0  9991
2 42784  97.1970 235.4533 0008716 225.7535 134.2991 15.29341102280979
DIAMOND GREEN           
1 42785U 17036W   22193.66868400  .00010130  00000+0  37541-3 0  9995
2 42785  97.1979 233.6654 0008706 234.4031 125.6398 15.27780775280864
DIAMOND BLUE            
1 42786U 17036X   22194.06088303  .00011353  00000+0  42051-3 0  9997
2 42786  97.1978 234.0360 0008763 233.3050 126.7385 15.27768772280844
NUDTSAT                 
1 42787U 17036Y   22194.19469218  .00016990  00000+0  51064-3 0  9996
2 42787  97.2015 239.5885 0007847 208.3220 151.7602 15.34441504281045
SUCHAI                  
1 42788U 17036Z   22193.86391237  .00017429  00000+0  57955-3 0  9998
2 42788  97.1980 236.6778 0008148 220.1724 139.8916 15.31199629281074
SKCUBE                  
1 42789U 17036AA  22193.67720693  .00014049  00000+0  47966-3 0  9996
2 42789  97.1977 235.9351 0008138 222.8643 137.1964 15.30391577280931
VZLUSAT-1               
1 42790U 17036AB  22193.68286872  .00021678  00000+0  65398-3 0  9990
2 42790  97.2005 239.0519 0007417 209.5832 150.4993 15.34275589281117
ROBUSTA-1B              
1 42792U 17036AD  22193.36284224  .00014123  00000+0  47435-3 0  9995
2 42792  97.1977 236.2103 0007677 223.1156 136.9485 15.30925806280937
CICERO 6                
1 42793U 17036AE  22194.41216999  .00008466  00000+0  31502-3 0  9998
2 42793  97.1955 234.8595 0007509 228.4498 131.6099 15.27709456281036
CORVUS BC2              
1 42846U 17042X   22194.55532454  .00001379  00000+0  13780-3 0  9990
2 42846  97.4204  50.3849 0007799 270.1123  89.9204 14.92950959272173
CORVUS BC1              
1 42847U 17042Y   22193.82986494  .00001332  00000+0  13296-3 0  9998
2 42847  97.4207  50.0110 0007440 271.8584  88.1784 14.93054271272073
MIRATA                  
1 43015U 17073C   22193.57164256  .00009053  00000+0  64970-3 0  9999
2 43015  97.6727  87.9461 0239702  98.4580 264.3880 14.84207259250993
MAKERSAT 0              
1 43016U 17073D   22193.69883728  .00005648  00000+0  41592-3 0  9996
2 43016  97.6743  87.5926 0246665 102.5237 260.3688 14.82465203250935
AEROCUBE 7B (OCSD B)    
1 43042U 17071F   22194.35091815  .00352195  58526-4  10079-2 0  9993
2 43042  51.6289 267.3527 0010199 343.3724  16.6947 15.92582877259805
AEROCUBE 7C (OCSD C)    
1 43043U 17071G   22194.38322288  .00266711  00000+0  94662-3 0  9996
2 43043  51.6276 269.7951 0008802 340.0760  19.9899 15.87662020259749
ASGARDIA 1              
1 43049U 17071N   22193.66825892  .00151908  00000+0  83268-3 0  9992
2 43049  51.6297 277.2611 0005458 331.3569  28.7131 15.78803074259584
PROPCUBE 2 (FAUNA)      
1 43052U 17071R   22194.46220310  .00431619  86317-4  10419-2 0  9996
2 43052  51.6207 260.6267 0010185 350.6998   9.3820 15.95739478259861
CORVUS BC3              
1 43118U 18004H   22193.78640109  .00008583  00000+0  32012-3 0  9996
2 43118  97.3624 266.1688 0007361 272.0246  88.0150 15.27639848250087
MICROMAS-2A             
1 43131U 18004W   22193.94255804  .00029966  00000+0  82142-3 0  9990
2 43131  97.3758 273.2964 0004825 243.7921 116.2827 15.37235944250493
SPACEBEE-4              
1 43139U 18004AE  22193.74882573  .00059005  00000+0  11886-2 0  9998
2 43139  97.3853 278.3660 0004356 221.2940 138.7981 15.46368739250755
SPACEBEE-3              
1 43140U 18004AF  22193.83551164  .00143683  00000+0  18338-2 0  9994
2 43140  97.3883 282.6369 0004882 207.1991 152.9011 15.58779615251011
SPACEBEE-2              
1 43141U 18004AG  22194.17191780  .00198366  00000+0  19068-2 0  9996
2 43141  97.3893 284.7328 0005817 209.2789 150.8146 15.65932210251160
SPACEBEE-1              
1 43142U 18004AH  22193.96757008  .00488395  00000+0  24852-2 0  9995
2 43142  97.3855 286.6671 0007915 229.0359 131.0224 15.80119081251253
CICERO 7                
1 43143U 18004AJ  22194.49162682  .00017059  00000+0  51652-3 0  9997
2 43143  97.3737 273.2645 0003864 255.4176 104.6638 15.34232107250567
GOMX-4B                 
1 43196U 18015E   22194.16613642  .00006069  00000+0  22896-3 0  9995
2 43196  97.5365 333.7941 0016091 331.1760  28.8588 15.27304385247086
GOMX-4A                 
1 43197U 18015F   22194.11633977  .00005788  00000+0  20718-3 0  9992
2 43197  97.5350 334.6105 0015760 330.4775 115.3150 15.29066698247141
AEROCUBE 12A            
1 43556U 18046C   22194.07627592  .00021854  00000+0  54572-3 0  9993
2 43556  51.6380  58.8877 0007779 127.3201 232.8494 15.40064112223268
AEROCUBE 12B            
1 43557U 18046D   22193.85155342  .00019799  00000+0  53067-3 0  9991
2 43557  51.6383  64.8153 0007946 122.7777 237.3973 15.37954948223116
SURFSAT                 
1 43614U 18070B   22193.85278566  .00050626  00000+0  70039-3 0  9998
2 43614  93.0301 109.5505 0006435 277.3186  82.7347 15.56933717215010
CP7 (DAVE)              
1 43615U 18070C   22193.75434831  .00043134  00000+0  62931-3 0  9995
2 43615  93.0289 109.3378 0007106 284.4377  75.6098 15.55511709214968
ELFIN-B                 
1 43616U 18070D   22194.33490357  .00129248  00000+0  97966-3 0  9993
2 43616  93.0187 110.9728 0003989 220.2013 139.8965 15.71981381215415
ELFIN-A                 
1 43617U 18070E   22194.23105882  .00158224  00000+0  10469-2 0  9997
2 43617  93.0251 112.3458 0004309 195.4589 164.6554 15.75092755215458
CUBEBEL-1 (BSUSAT-1)    
1 43666U 18083E   22194.41116247  .00007764  00000+0  32663-3 0  9995
2 43666  97.4190 222.8049 0011384 237.3059 248.2035 15.23607491205436
CICERO 10               
1 43690U 18088A   22194.54841204  .00008148  00000+0  32228-3 0  9993
2 43690  85.0379 299.0109 0014984  57.5001 302.7688 15.25189873203716
IRVINE01                
1 43693U 18088D   22193.70086994  .00044936  00000+0  11431-2 0  9997
2 43693  85.0297 293.7088 0010860  24.7495 335.4275 15.39352484204101
PROXIMA I               
1 43694U 18088E   22194.54623433  .00009240  00000+0  34770-3 0  9997
2 43694  85.0315 295.6392 0017379  25.0357 335.1727 15.26822348203942
PROXIMA II              
1 43696U 18088G   22194.02243396  .00010802  00000+0  40703-3 0  9997
2 43696  85.0314 296.0075 0017511  26.8301 333.3845 15.26791718203860
FACSAT-1                
1 43721U 18096C   22194.48347516  .00016786  00000+0  46363-3 0  9999
2 43721  97.3503 274.2890 0011569 324.4912  92.0809 15.37063349201973
CENTAURI-2              
1 43722U 18096D   22193.76496009  .00032964  00000+0  80937-3 0  9993
2 43722  97.3561 275.6873 0010800 321.5279  38.5196 15.40553412201978
INNOSAT-2               
1 43738U 18096V   22194.56151263  .00058402  00000+0  98302-3 0  9999
2 43738  97.3649 283.9813 0010784 300.6274 156.4621 15.51467738202557
SIRION PATHFINDER-2     
1 43759U 18099B   22193.85007639  .00001866  00000+0  16924-3 0  9995
2 43759  97.6190 259.9548 0014312 170.4175 189.7322 14.96428314196842
CORVUS BC4              
1 43767U 18099K   22193.81458823  .00001691  00000+0  15633-3 0  9997
2 43767  97.6153 258.3907 0011540 174.0723 186.0637 14.95830014196764
MOVE-II                 
1 43780U 18099Y   22194.13660257  .00005732  00000+0  49082-3 0  9999
2 43780  97.6241 261.0034 0013243 175.2002 184.9349 14.97887589196908
SPACEBEE-7              
1 43816U 18099BL  22194.45921417  .00003970  00000+0  34251-3 0  9996
2 43816  97.6246 262.0482 0013820 161.2125 198.9610 14.97763833196544
SPACEBEE-5              
1 43817U 18099BM  22193.72612424  .00010952  00000+0  84985-3 0  9998
2 43817  97.6382 264.3664 0008148 166.1798 193.9651 15.01509191196563
SPACEBEE-6              
1 43818U 18099BN  22193.73005957  .00006049  00000+0  50511-3 0  9997
2 43818  97.6285 262.2534 0013988 161.5293 198.6441 14.98831142196621
SHIELDS 1               
1 43850U 18104B   22193.72482626  .00003883  00000+0  15968-3 0  9991
2 43850  85.0272  35.4464 0014559 163.3078 196.8648 15.23718123198355
STF-1                   
1 43852U 18104D   22193.96058069  .00011354  00000+0  42534-3 0  9990
2 43852  85.0297  35.5330 0012820 173.4394 186.7021 15.27058786198437
ZACUBE-2                
1 43907U 18111AH  22194.12965659  .00007871  00000+0  28828-3 0  9999
2 43907  97.1886  79.5180 0019696 354.5364 149.0789 15.28096080197212
LUME 1                  
1 43908U 18111AJ  22193.68051960  .00010994  00000+0  37010-3 0  9994
2 43908  97.1892  80.6976 0017906 350.4145   9.6752 15.30783544197256
AOBA VELOX-IV           
1 43940U 19003J   22194.05643048  .00040223  00000+0  10455-2 0  9998
2 43940  97.1239 229.1631 0018501  57.7848 302.5189 15.38650563194061
MOVE-IIB                
1 44398U 19038N   22194.18493961  .00011382  00000+0  54306-3 0  9993
2 44398  97.6294 163.7681 0023007  42.2275 318.0745 15.19006933166944
SONATE                  
1 44400U 19038Q   22194.22050651  .00004369  00000+0  23716-3 0  9995
2 44400  97.6414 162.8412 0025038  46.6140 313.7174 15.14811961166835
LUCKY-7                 
1 44406U 19038W   22193.87314467  .00007759  00000+0  40724-3 0  9993
2 44406  97.6391 163.0256 0023992  46.2907 314.0307 15.15764621166819
BEESAT 9                
1 44412U 19038AC  22193.84625329  .00010822  00000+0  54491-3 0  9990
2 44412  97.6360 163.3226 0021759  50.3605 309.9543 15.17168449166545
JAISAT-1                
1 44419U 19038F   22193.88997053  .00010464  00000+0  52025-3 0  9990
2 44419  97.6363 164.2237 0020662  47.8076 312.4907 15.17643339166912
DUCHIFAT-3              
1 44854U 19089C   22194.44765602  .00003012  00000+0  23618-3 0  9992
2 44854  36.9677 306.2265 0007710  63.1867 296.9698 15.01217880141845
EYESAT-NANO             
1 44877U 19092E   22194.27334050  .00011666  00000+0  49924-3 0  9993
2 44877  97.4631  18.4659 0009747 264.1850  95.8275 15.22925717142293
